{
  "type": "FeatureCollection",
  "features": [
    {
      "type": "Feature",
      "properties": {
        "norad_id": 66850,
        "name": "STARLINK-36105",
        "group": "last-30-days",
        "lat": -42.8507956821026,
        "lon": -4.8627692226604164,
        "alt_km": 346.81980975737224,
        "timestamp": "2025-12-19T16:54:42.968721+00:00",
        "meta_object_name": "STARLINK-36105",
        "meta_object_id": "2025-281C",
        "meta_epoch": "2025-12-19T06:00:02.000160",
        "meta_mean_motion": 15.750485,
        "meta_eccentricity": 0.00014766,
        "meta_inclination": 43.0011,
        "meta_ra_of_asc_node": 82.4467,
        "meta_arg_of_pericenter": 263.49,
        "meta_mean_anomaly": 309.4486,
        "meta_ephemeris_type": 0,
        "meta_classification_type": "U",
        "meta_norad_cat_id": 66850,
        "meta_element_set_no": 999,
        "meta_rev_at_epoch": 244,
        "meta_bstar": 9.1785852e-05,
        "meta_mean_motion_dot": 0.0001365,
        "meta_mean_motion_ddot": 0,
        "tle_line1": "1 66850U 25281C   25353.25002315  .00013650  00000+0  91786-4 0  9998",
        "tle_line2": "2 66850  43.0011  82.4467 0001476 263.4900 309.4486 15.75048500  2448"
      },
      "geometry": {
        "type": "Point",
        "coordinates": [
          -4.8627692226604164,
          -42.8507956821026
        ]
      }
    },
    {
      "type": "Feature",
      "properties": {
        "norad_id": 66851,
        "name": "STARLINK-36094",
        "group": "last-30-days",
        "lat": -42.69729940205116,
        "lon": -2.2666615177903386,
        "alt_km": 346.87793795762445,
        "timestamp": "2025-12-19T16:54:42.968731+00:00",
        "meta_object_name": "STARLINK-36094",
        "meta_object_id": "2025-281D",
        "meta_epoch": "2025-12-19T06:00:02.000160",
        "meta_mean_motion": 15.75024596,
        "meta_eccentricity": 0.00014301,
        "meta_inclination": 43.0011,
        "meta_ra_of_asc_node": 82.4416,
        "meta_arg_of_pericenter": 260.3753,
        "meta_mean_anomaly": 314.5047,
        "meta_ephemeris_type": 0,
        "meta_classification_type": "U",
        "meta_norad_cat_id": 66851,
        "meta_element_set_no": 999,
        "meta_rev_at_epoch": 244,
        "meta_bstar": 0.00022318746,
        "meta_mean_motion_dot": 0.00033922,
        "meta_mean_motion_ddot": 0,
        "tle_line1": "1 66851U 25281D   25353.25002315  .00033922  00000+0  22319-3 0  9998",
        "tle_line2": "2 66851  43.0011  82.4416 0001430 260.3753 314.5047 15.75024596  2444"
      },
      "geometry": {
        "type": "Point",
        "coordinates": [
          -2.2666615177903386,
          -42.69729940205116
        ]
      }
    },
    {
      "type": "Feature",
      "properties": {
        "norad_id": 66852,
        "name": "STARLINK-35992",
        "group": "last-30-days",
        "lat": -42.48542678954952,
        "lon": 0.3141340048374682,
        "alt_km": 346.7890926325108,
        "timestamp": "2025-12-19T16:54:42.968741+00:00",
        "meta_object_name": "STARLINK-35992",
        "meta_object_id": "2025-281E",
        "meta_epoch": "2025-12-19T06:00:02.000160",
        "meta_mean_motion": 15.75065857,
        "meta_eccentricity": 0.00015522,
        "meta_inclination": 43.0012,
        "meta_ra_of_asc_node": 82.4371,
        "meta_arg_of_pericenter": 268.366,
        "meta_mean_anomaly": 308.4074,
        "meta_ephemeris_type": 0,
        "meta_classification_type": "U",
        "meta_norad_cat_id": 66852,
        "meta_element_set_no": 999,
        "meta_rev_at_epoch": 244,
        "meta_bstar": -0.00013885468,
        "meta_mean_motion_dot": -0.00021777,
        "meta_mean_motion_ddot": 0,
        "tle_line1": "1 66852U 25281E   25353.25002315 -.00021777  00000+0 -13885-3 0  9994",
        "tle_line2": "2 66852  43.0012  82.4371 0001552 268.3660 308.4074 15.75065857  2443"
      },
      "geometry": {
        "type": "Point",
        "coordinates": [
          0.3141340048374682,
          -42.48542678954952
        ]
      }
    },
    {
      "type": "Feature",
      "properties": {
        "norad_id": 66853,
        "name": "STARLINK-35986",
        "group": "last-30-days",
        "lat": -42.21559678849242,
        "lon": 2.8726890235024762,
        "alt_km": 346.91489982118856,
        "timestamp": "2025-12-19T16:54:42.968751+00:00",
        "meta_object_name": "STARLINK-35986",
        "meta_object_id": "2025-281F",
        "meta_epoch": "2025-12-19T06:00:02.000160",
        "meta_mean_motion": 15.75057699,
        "meta_eccentricity": 0.0001436,
        "meta_inclination": 43.0007,
        "meta_ra_of_asc_node": 82.4328,
        "meta_arg_of_pericenter": 271.2311,
        "meta_mean_anomaly": 307.4837,
        "meta_ephemeris_type": 0,
        "meta_classification_type": "U",
        "meta_norad_cat_id": 66853,
        "meta_element_set_no": 999,
        "meta_rev_at_epoch": 244,
        "meta_bstar": -0.00023962812,
        "meta_mean_motion_dot": -0.00037154,
        "meta_mean_motion_ddot": 0,
        "tle_line1": "1 66853U 25281F   25353.25002315 -.00037154  00000+0 -23963-3 0  9999",
        "tle_line2": "2 66853  43.0007  82.4328 0001436 271.2311 307.4837 15.75057699  2448"
      },
      "geometry": {
        "type": "Point",
        "coordinates": [
          2.8726890235024762,
          -42.21559678849242
        ]
      }
    },
    {
      "type": "Feature",
      "properties": {
        "norad_id": 66854,
        "name": "STARLINK-36087",
        "group": "last-30-days",
        "lat": -41.88427394498755,
        "lon": 5.445911959564226,
        "alt_km": 346.8456685562787,
        "timestamp": "2025-12-19T16:54:42.968761+00:00",
        "meta_object_name": "STARLINK-36087",
        "meta_object_id": "2025-281G",
        "meta_epoch": "2025-12-19T06:00:02.000160",
        "meta_mean_motion": 15.75207726,
        "meta_eccentricity": 0.00016369,
        "meta_inclination": 43.0008,
        "meta_ra_of_asc_node": 82.4278,
        "meta_arg_of_pericenter": 265.895,
        "meta_mean_anomaly": 314.6659,
        "meta_ephemeris_type": 0,
        "meta_classification_type": "U",
        "meta_norad_cat_id": 66854,
        "meta_element_set_no": 999,
        "meta_rev_at_epoch": 244,
        "meta_bstar": -0.0015333695,
        "meta_mean_motion_dot": -0.00231385,
        "meta_mean_motion_ddot": 0,
        "tle_line1": "1 66854U 25281G   25353.25002315 -.00231385  00000+0 -15334-2 0  9994",
        "tle_line2": "2 66854  43.0008  82.4278 0001636 265.8950 314.6659 15.75207726  2444"
      },
      "geometry": {
        "type": "Point",
        "coordinates": [
          5.445911959564226,
          -41.88427394498755
        ]
      }
    },
    {
      "type": "Feature",
      "properties": {
        "norad_id": 66855,
        "name": "STARLINK-36090",
        "group": "last-30-days",
        "lat": -41.50968527931889,
        "lon": 7.906278461580169,
        "alt_km": 347.16082690677194,
        "timestamp": "2025-12-19T16:54:42.968771+00:00",
        "meta_object_name": "STARLINK-36090",
        "meta_object_id": "2025-281H",
        "meta_epoch": "2025-12-19T06:00:02.000160",
        "meta_mean_motion": 15.75049096,
        "meta_eccentricity": 0.00010203,
        "meta_inclination": 43.0009,
        "meta_ra_of_asc_node": 82.4224,
        "meta_arg_of_pericenter": 260.9719,
        "meta_mean_anomaly": 321.5625,
        "meta_ephemeris_type": 0,
        "meta_classification_type": "U",
        "meta_norad_cat_id": 66855,
        "meta_element_set_no": 999,
        "meta_rev_at_epoch": 232,
        "meta_bstar": -6.578688e-05,
        "meta_mean_motion_dot": -0.00010573,
        "meta_mean_motion_ddot": 0,
        "tle_line1": "1 66855U 25281H   25353.25002315 -.00010573  00000+0 -65787-4 0  9998",
        "tle_line2": "2 66855  43.0009  82.4224 0001020 260.9719 321.5625 15.75049096  2324"
      },
      "geometry": {
        "type": "Point",
        "coordinates": [
          7.906278461580169,
          -41.50968527931889
        ]
      }
    },
    {
      "type": "Feature",
      "properties": {
        "norad_id": 66856,
        "name": "STARLINK-36072",
        "group": "last-30-days",
        "lat": -41.07208237209235,
        "lon": 10.39391682316535,
        "alt_km": 346.72333036084365,
        "timestamp": "2025-12-19T16:54:42.968781+00:00",
        "meta_object_name": "STARLINK-36072",
        "meta_object_id": "2025-281J",
        "meta_epoch": "2025-12-19T06:00:02.000160",
        "meta_mean_motion": 15.75056751,
        "meta_eccentricity": 0.00017116,
        "meta_inclination": 43.0007,
        "meta_ra_of_asc_node": 82.4177,
        "meta_arg_of_pericenter": 263.8601,
        "meta_mean_anomaly": 320.5998,
        "meta_ephemeris_type": 0,
        "meta_classification_type": "U",
        "meta_norad_cat_id": 66856,
        "meta_element_set_no": 999,
        "meta_rev_at_epoch": 244,
        "meta_bstar": -0.00019131,
        "meta_mean_motion_dot": -0.00029784,
        "meta_mean_motion_ddot": 0,
        "tle_line1": "1 66856U 25281J   25353.25002315 -.00029784  00000+0 -19131-3 0  9994",
        "tle_line2": "2 66856  43.0007  82.4177 0001711 263.8601 320.5998 15.75056751  2440"
      },
      "geometry": {
        "type": "Point",
        "coordinates": [
          10.39391682316535,
          -41.07208237209235
        ]
      }
    }
  ]
}